id,category,satellite_name,tle_line1,tle_line2,inclination,eccentricity,period,perigee,apogee,epoch,raan,arg_perigee,mean_anomaly,mean_motion,semi_major_axis,velocity,orbit_type,satellite_age,bstar,rev_num,norad_number,ephemeris_type,intl_designator
4432,active,WFOV (USA 332),1 52940U 22073A   25015.87514715 -.00000364  00000+0  00000+0 0  9997,2 52940   2.3771  85.3411 0002126 174.2981 290.2180  1.00268741  9186,2.3771,0.0002126,1436.1405016544486,35778.62092303908,35796.549729919905,2025-01-15 21:00:12.71376,85.3411,174.2981,1.00268741,1.00268741,42165.58532647949,3.0746084834870078,GEO,4,0,918,52940,0,22073A
4433,active,COSMOS 2557 [GLONASS-K],1 52984U 22075A   25016.92201457 -.00000076  00000+0  00000+0 0  9990,2 52984  64.5815 332.6185 0013569 282.4458  77.4002  2.13101807 19715,64.5815,0.0013569,675.7333596894371,19095.427969527103,19164.65168801442,2025-01-16 22:07:42.058848,332.6185,282.4458,2.13101807,2.13101807,25508.03982877076,3.953032133383307,MEO,3,0,1971,52984,0,22075A
4435,active,STARLINK-4259,1 52987U 22076B   25017.56465520  .00000099  00000+0  24322-4 0  9990,2 52987  53.2163 172.1749 0001210 100.3585 259.7544 15.08840829139880,53.2163,0.000121,95.43750224166288,539.0407918234496,540.7149182643707,2025-01-17 13:33:06.20928,172.1749,100.35850000000002,259.7544,15.08840829,6917.87785504391,7.590710757428698,LEO,2,2.4322000000000002e-05,13988,52987,0,22076B
4437,active,STARLINK-4293,1 52989U 22076D   25017.42852679 -.00017831  00000+0 -11066-2 0  9995,2 52989  53.2167 172.7846 0001421  98.5754 261.5399 15.08786823139860,53.2167,0.0001421,95.44091836226224,539.0598806522421,541.0259884542411,2025-01-17 10:17:04.714656,172.7846,98.5754,261.5399,15.08786823,6918.042934553242,7.590620191477134,LEO,2,-0.0011066,13986,52989,0,22076D
4438,active,STARLINK-4286,1 52990U 22076E   25017.15985594  .00000439  00000+0  45661-4 0  9994,2 52990  53.2175 173.9922 0001167  85.0116 275.1010 15.08840434139825,53.2175,0.0001167,95.43752722628854,539.0717459134639,540.6863788866276,2025-01-17 03:50:11.553216,173.9922,85.0116,275.101,15.08840434,6917.879062400046,7.590710095036979,LEO,2,4.5661e-05,13982,52990,0,22076E
4440,active,STARLINK-4269,1 52992U 22076G   25017.61713250  .00000853  00000+0  71669-4 0  9992,2 52992  53.2173 171.9501 0001409  83.9219 276.1934 15.08843201139894,53.2173,0.0001409,95.4373522076798,538.8958768367638,540.8453327731986,2025-01-17 14:48:40.248,171.9501,83.9219,276.1934,15.08843201,6917.870604804981,7.590714735130462,LEO,2,7.166900000000001e-05,13989,52992,0,22076G
4442,active,STARLINK-4256,1 52994U 22076J   25017.58029770  .00001125  00000+0  88765-4 0  9995,2 52994  53.2175 162.1064 0001243  90.8237 269.2898 15.08838928140026,53.2175,0.0001243,95.43762248424703,539.0237727015437,540.7435585808225,2025-01-17 13:55:37.72128,162.1064,90.8237,269.2898,15.08838928,6917.883665641183,7.5907075695626816,LEO,2,8.876500000000001e-05,14002,52994,0,22076J
4444,active,STARLINK-4295,1 52996U 22076L   25017.60337042  .00002096  00000+0  14972-3 0  9990,2 52996  53.2184 162.2826 0001316  67.9185 292.1946 15.08846159140027,53.21840000000001,0.0001316,95.43716510862656,538.9511728473399,540.7719540108346,2025-01-17 14:28:51.204288,162.2826,67.9185,292.1946,15.08846159,6917.861563429087,7.590719695513246,LEO,2,0.00014972,14002,52996,0,22076L
4445,active,STARLINK-4301,1 52997U 22076M   25017.58334491  .00436291  87943-4  10644-2 0  9998,2 52997  53.2209  43.3019 0007007  40.9966 215.7515 15.95638073142205,53.2209,0.0007007,90.24602911941172,282.0041169537244,291.3439911730893,2025-01-17 14:00:01.000224,43.3019,40.9966,215.7515,15.95638073,6664.674054063406,7.733559489585885,LEO,2,0.0010644,14220,52997,0,22076M
802,active,COSMOS 2504,1 40555U 15020D   25017.52864850  .00000560  00000+0  20592-3 0  9991,2 40555  82.5166 269.6851 0608805 235.4599 118.7649 13.60850648480043,82.5166,0.0608805,105.81616741824853,581.5697230777569,1483.9087428208995,2025-01-17 12:41:15.2304,269.6851,235.45990000000003,118.7649,13.60850648,7410.739232949329,7.333952992860672,LEO,2,0.00020592,48004,40555,0,15020D
4453,active,STARLINK-4288,1 53005U 22076V   25017.60604919 -.00000145  00000+0  89725-5 0  9996,2 53005  53.2159 161.9893 0001523  33.9716 326.1374 15.08840629140034,53.2159,0.0001523,95.43751489210462,538.8248734729796,540.9320592538352,2025-01-17 14:32:42.650016,161.9893,33.9716,326.1374,15.08840629,6917.878466363407,7.5907104220405,LEO,2,8.972500000000001e-06,14003,53005,0,22076V
4457,active,STARLINK-4277,1 53009U 22076Z   25017.58489409  .00000530  00000+0  51380-4 0  9994,2 53009  53.2177 152.0834 0001297  97.3153 262.7987 15.08840609140168,53.2177,0.0001297,95.43751615714896,538.9812786503471,540.7757763403797,2025-01-17 14:02:14.849376,152.0834,97.3153,262.7987,15.08840609,6917.878527495363,7.5907103885016785,LEO,2,5.1380000000000006e-05,14016,53009,0,22076Z
4452,active,STARLINK-4253,1 53004U 22076U   25017.55821687  .00001017  00000+0  81986-4 0  9990,2 53004  53.2173 162.2066 0001150  88.7930 271.3194 15.08837453140028,53.2173,0.000115,95.43771578156868,539.0926169950872,540.6837312751386,2025-01-17 13:23:49.937568,162.2066,88.793,271.3194,15.08837453,6917.888174135112,7.590705096071948,LEO,2,8.198600000000001e-05,14002,53004,0,22076U
4461,active,STARLINK-4177,1 53013U 22076AD  25017.57385674  .00000310  00000+0  37581-4 0  9990,2 53013  53.2172 152.1362 0001188  78.4890 281.6235 15.08839736140167,53.2172,0.0001188,95.43757137636783,539.0593516205327,540.7030401926804,2025-01-17 13:46:21.222336,152.1362,78.489,281.6235,15.08839736,6917.881195906606,7.590708924531836,LEO,2,3.7581e-05,14016,53013,0,22076AD
4462,active,STARLINK-4183,1 53014U 22076AE  25017.58857611  .00000885  00000+0  73684-4 0  9998,2 53014  53.2177 152.0671 0001272  95.2769 264.8369 15.08839344140167,53.2177,0.0001272,95.4375961712727,539.0024394538641,540.7623487349229,2025-01-17 14:07:32.975904,152.0671,95.2769,264.8369,15.08839344,6917.882394094393,7.590708267170624,LEO,2,7.368400000000001e-05,14016,53014,0,22076AE
4464,active,STARLINK-4283,1 53016U 22076AG  25017.57753692 -.00000284  00000+0  22909-6 0  9993,2 53016  53.2168 152.1182 0001309  89.0644 271.0498 15.08841205140163,53.216800000000006,0.0001309,95.43747845884154,538.9711557028377,540.782255824407,2025-01-17 13:51:39.189888,152.1182,89.06440000000002,271.0498,15.08841205,6917.876705763622,7.590711387958429,LEO,2,2.2908999999999997e-07,14016,53016,0,22076AG
4465,active,STARLINK-4281,1 53017U 22076AH  25017.56281501  .00000849  00000+0  71390-4 0  9990,2 53017  53.2168 152.1836 0000891 101.7864 258.3229 15.08843630140176,53.216800000000006,8.91e-05,95.43732507257893,539.2529113744995,540.4856756826066,2025-01-17 13:30:27.216864,152.1836,101.7864,258.3229,15.0884363,6917.869293528553,7.590715454537292,LEO,2,7.139e-05,14017,53017,0,22076AH
4468,active,STARLINK-4287,1 53020U 22076AL  25017.57017524 -.00000016  00000+0  17101-4 0  9994,2 53020  53.2169 152.1532 0001369  85.1626 274.9522 15.08842620140163,53.2169,0.0001369,95.43738895710673,538.9253239549234,540.8194374127543,2025-01-17 13:41:03.140736,152.1532,85.1626,274.9522,15.0884262,6917.872380683839,7.590713760828687,LEO,2,1.7101e-05,14016,53020,0,22076AL
4469,active,STARLINK-4216,1 53022U 22076AN  25017.55913793  .00000570  00000+0  53919-4 0  9998,2 53022  53.2165 152.1997 0001106  78.8467 281.2650 15.08841258140166,53.2165,0.0001106,95.43747510647671,539.1114266183049,540.6416609097851,2025-01-17 13:25:09.517152,152.1997,78.8467,281.265,15.08841258,6917.876543764045,7.590711476836282,LEO,2,5.3918999999999997e-05,14016,53022,0,22076AN
4470,active,STARLINK-4284,1 53023U 22076AP  25017.60697844 -.00000063  00000+0  14129-4 0  9999,2 53023  53.2174 151.9779 0001314  93.6141 266.5001 15.08835222140178,53.2174,0.0001314,95.43785689806755,538.9859820350375,540.8040048393113,2025-01-17 14:34:02.937216,151.9779,93.6141,266.5001,15.08835222,6917.894993437175,7.590701354809345,LEO,2,1.4129e-05,14017,53023,0,22076AP
4473,active,STARLINK-4119,1 53026U 22076AS  25017.60792588 -.00000470  00000+0 -11423-4 0  9990,2 53026  53.2182 151.8814 0001395  82.7375 277.3776 15.08834250140175,53.2182,0.0001395,95.43791837970275,538.9329177035534,540.8630112356395,2025-01-17 14:35:24.796032,151.8814,82.7375,277.3776,15.0883425,6917.897964469596,7.590699724818387,LEO,2,-1.1423e-05,14017,53026,0,22076AS
4474,active,STARLINK-4158,1 53027U 22076AT  25017.59225917  .00000301  00000+0  37021-4 0  9999,2 53027  53.2174 152.0522 0001288  91.1805 268.9335 15.08836516140173,53.2174,0.0001288,95.43777504918232,539.0000138130818,540.7820625445165,2025-01-17 14:12:51.192288,152.0522,91.1805,268.9335,15.08836516,6917.891038178799,7.590703524775644,LEO,2,3.7021000000000004e-05,14017,53027,0,22076AT
4477,active,STARLINK-4137,1 53031U 22076AX  25017.56741508  .00000611  00000+0  56450-4 0  9991,2 53031  53.2176 142.1617 0001339  95.4738 264.6407 15.08838127140302,53.2176,0.0001339,95.437673149414,538.9598090310583,540.8124189323835,2025-01-17 13:37:04.662912,142.1617,95.4738,264.6407,15.08838127,6917.886113981721,7.590706226331642,LEO,2,5.645e-05,14030,53031,0,22076AX
4478,active,STARLINK-4115,1 53032U 22076AY  25017.59593883  .00000110  00000+0  24974-4 0  9996,2 53032  53.2181 152.0355 0001447  73.0839 287.0312 15.08836860140173,53.21810000000001,0.0001447,95.43775329030602,538.8889680234952,540.891005385648,2025-01-17 14:18:09.114912,152.0355,73.0839,287.0312,15.0883686,6917.889986704571,7.5907041016443735,LEO,2,2.4974000000000002e-05,14017,53032,0,22076AY
4479,active,STARLINK-4167,1 53033U 22076AZ  25017.57110920  .00008059  00000+0  52390-3 0  9994,2 53033  53.2167 142.1495 0001313 105.1270 254.9868 15.08835804140302,53.2167,0.0001313,95.43782008502764,538.9848951081285,540.8015338662535,2025-01-17 13:42:23.83488,142.1495,105.127,254.9868,15.08835804,6917.893214487191,7.59070233079125,LEO,2,0.0005239,14030,53033,0,22076AZ
